{"Haryana": [{"city": "Bahadurgarh", "pincode": "124507"}, {"city": "Bhiwani", "pincode": "127021"}, {"city": "Charkhi Dadri", "pincode": 0}, {"city": "Faridabad", "pincode": "121001"}, {"city": "Fatehabad", "pincode": "201001"}, {"city": "Gohana", "pincode": "131301"}, {"city": "Gurgaon", "pincode": "122001"}, {"city": "Hansi", "pincode": "125033"}, {"city": "Hisar", "pincode": "233304"}, {"city": "Jind", "pincode": "126102"}, {"city": "Kaithal", "pincode": "136027"}, {"city": "Karnal", "pincode": "132001"}, {"city": "Ladwa", "pincode": "132132"}, {"city": "Mahendragarh", "pincode": "385340"}, {"city": "Mandi Dabwali", "pincode": 0}, {"city": "Narnaul", "pincode": "123001"}, {"city": "Narwana", "pincode": "126116"}, {"city": "Palwal", "pincode": "121102"}, {"city": "Panchkula", "pincode": "134115"}, {"city": "Panipat", "pincode": "132103"}, {"city": "Pehowa", "pincode": "136128"}, {"city": "Pinjore", "pincode": "134102"}, {"city": "Rania", "pincode": "125076"}, {"city": "Ratia", "pincode": "125051"}, {"city": "Rewari", "pincode": "123401"}, {"city": "Rohtak", "pincode": "124001"}, {"city": "Safidon", "pincode": "126112"}, {"city": "Samalkha", "pincode": "110037"}, {"city": "Sarsod", "pincode": "125121"}, {"city": "Shahbad", "pincode": "110042"}, {"city": "Sirsa", "pincode": "125077"}, {"city": "Sohna", "pincode": "122103"}, {"city": "Sonipat", "pincode": "131001"}, {"city": "Taraori", "pincode": 0}, {"city": "Thanesar", "pincode": "136118"}, {"city": "Tohana", "pincode": "125120"}, {"city": "Yamunanagar", "pincode": "135001"}], "Punjab": [{"city": "Amritsar", "pincode": "143001"}, {"city": "Barnala", "pincode": "148101"}, {"city": "Batala", "pincode": "143505"}, {"city": "Bathinda", "pincode": "151001"}, {"city": "Dhuri", "pincode": "148024"}, {"city": "Faridkot", "pincode": "151203"}, {"city": "Fazilka", "pincode": "152123"}, {"city": "Firozpur", "pincode": "152002"}, {"city": "Firozpur Cantt.", "pincode": 0}, {"city": "Gobindgarh", "pincode": "147301"}, {"city": "Gurdaspur", "pincode": "145001"}, {"city": "Hoshiarpur", "pincode": "146001"}, {"city": "Jagraon", "pincode": "142025"}, {"city": "Jalandhar Cantt.", "pincode": 0}, {"city": "Jalandhar", "pincode": "144001"}, {"city": "Kapurthala", "pincode": "144601"}, {"city": "Khanna", "pincode": "160065"}, {"city": "Kharar", "pincode": "140301"}, {"city": "Kot Kapura", "pincode": 0}, {"city": "Longowal", "pincode": "148106"}, {"city": "Ludhiana", "pincode": "141401"}, {"city": "Malerkotla", "pincode": "401675"}, {"city": "Malout", "pincode": "152107"}, {"city": "Mansa", "pincode": "151505"}, {"city": "Moga", "pincode": "142001"}, {"city": "Mohali", "pincode": "160055"}, {"city": "Morinda, India", "pincode": 0}, {"city": "Mukerian", "pincode": "144211"}, {"city": "Muktsar", "pincode": "152026"}, {"city": "Nabha", "pincode": "147201"}, {"city": "Nakodar", "pincode": "144001"}, {"city": "Nangal", "pincode": 0}, {"city": "Nawanshahr", "pincode": "144505"}, {"city": "Pathankot", "pincode": "110032"}, {"city": "Patiala", "pincode": "147001"}, {"city": "Pattran", "pincode": 0}, {"city": "Patti", "pincode": "143416"}, {"city": "Phagwara", "pincode": "144401"}, {"city": "Phillaur", "pincode": "144410"}, {"city": "Qadian", "pincode": "143516"}, {"city": "Raikot", "pincode": "141109"}, {"city": "Rajpura", "pincode": "140401"}, {"city": "Rampura Phul", "pincode": 0}, {"city": "Rupnagar", "pincode": "144108"}, {"city": "Samana", "pincode": "147101"}, {"city": "Sangrur", "pincode": "148101"}, {"city": "Sirhind Fatehgarh Sahib", "pincode": 0}, {"city": "Sujanpur", "pincode": "176109"}, {"city": "Sunam", "pincode": "148028"}, {"city": "Talwara", "pincode": "144216"}, {"city": "Tarn Taran", "pincode": 0}, {"city": "Urmar Tanda", "pincode": 0}, {"city": "Zira", "pincode": "142047"}, {"city": "Zirakpur", "pincode": "140603"}], "Goa": [{"city": "Mapusa", "pincode": "403507"}, {"city": "Margao", "pincode": "403601"}, {"city": "Marmagao", "pincode": 0}, {"city": "Panaji*", "pincode": 0}], "Chhattisgarh": [{"city": "Ambikapur", "pincode": "497001"}, {"city": "Bhatapara", "pincode": "493118"}, {"city": "Bhilai Nagar", "pincode": 0}, {"city": "Bilaspur", "pincode": "495001"}, {"city": "Chirmiri", "pincode": 0}, {"city": "Dalli-Rajhara", "pincode": "491228"}, {"city": "Dhamtari", "pincode": "493773"}, {"city": "Durg", "pincode": "491001"}, {"city": "Jagdalpur", "pincode": "494001"}, {"city": "Korba", "pincode": "495677"}, {"city": "Mahasamund", "pincode": "493445"}, {"city": "Manendragarh", "pincode": "497442"}, {"city": "Mungeli", "pincode": "595334"}, {"city": "Naila Janjgir", "pincode": 0}, {"city": "Raigarh", "pincode": "496001"}, {"city": "Raipur*", "pincode": 0}, {"city": "Rajnandgaon", "pincode": "491441"}, {"city": "Sakti", "pincode": "495689"}, {"city": "Tilda Newra", "pincode": 0}], "Kerala": [{"city": "Adoor", "pincode": "691523"}, {"city": "Alappuzha", "pincode": "688001"}, {"city": "Attingal", "pincode": "695101"}, {"city": "Chalakudy", "pincode": "680307"}, {"city": "Changanassery", "pincode": "686101"}, {"city": "Cherthala", "pincode": "673016"}, {"city": "Chittur-Thathamangalam", "pincode": "678101"}, {"city": "Guruvayoor", "pincode": "680101"}, {"city": "Kanhangad", "pincode": "671315"}, {"city": "Kannur", "pincode": "670109"}, {"city": "Kasaragod", "pincode": "671121"}, {"city": "Kayamkulam", "pincode": "690502"}, {"city": "Kochi", "pincode": "713202"}, {"city": "Kodungallur", "pincode": "680664"}, {"city": "Kollam", "pincode": "691001"}, {"city": "Kottayam", "pincode": "686001"}, {"city": "Kozhikode", "pincode": "673001"}, {"city": "Kunnamkulam", "pincode": "680503"}, {"city": "Malappuram", "pincode": "676504"}, {"city": "Mattannur", "pincode": "670702"}, {"city": "Mavelikkara", "pincode": "690101"}, {"city": "Mavoor", "pincode": "673661"}, {"city": "Muvattupuzha", "pincode": "686661"}, {"city": "Nedumangad", "pincode": "695541"}, {"city": "Neyyattinkara", "pincode": "695121"}, {"city": "Nilambur", "pincode": "679329"}, {"city": "Ottappalam", "pincode": "679101"}, {"city": "Palai", "pincode": "686575"}, {"city": "Palakkad", "pincode": "678001"}, {"city": "Panamattom", "pincode": "686522"}, {"city": "Panniyannur", "pincode": "670679"}, {"city": "Pappinisseri", "pincode": "670561"}, {"city": "Paravoor", "pincode": 0}, {"city": "Pathanamthitta", "pincode": "689101"}, {"city": "Peringathur", "pincode": "670675"}, {"city": "Perinthalmanna", "pincode": "679321"}, {"city": "Perumbavoor", "pincode": "683542"}, {"city": "Ponnani", "pincode": "679577"}, {"city": "Punalur", "pincode": "691305"}, {"city": "Puthuppally", "pincode": "690527"}, {"city": "Koyilandy", "pincode": "673305"}, {"city": "Shoranur", "pincode": "679122"}, {"city": "Taliparamba", "pincode": "670141"}, {"city": "Thiruvalla", "pincode": "689101"}, {"city": "Thiruvananthapuram", "pincode": "695013"}, {"city": "Thodupuzha", "pincode": "685584"}, {"city": "Thrissur", "pincode": "680001"}, {"city": "Tirur", "pincode": "676101"}, {"city": "Vaikom", "pincode": "686141"}, {"city": "Varkala", "pincode": "695141"}, {"city": "Vatakara", "pincode": "673021"}], "Karnatka": [{"city": "Mysore", "pincode": "401107"}], "Bihar": [{"city": "Araria", "pincode": "854339"}, {"city": "Arrah", "pincode": "802301"}, {"city": "Arwal", "pincode": "804419"}, {"city": "Asarganj", "pincode": "813201"}, {"city": "Aurangabad", "pincode": "431003"}, {"city": "Bagaha", "pincode": "845101"}, {"city": "Barh", "pincode": "641018"}, {"city": "Begusarai", "pincode": "851101"}, {"city": "Bettiah", "pincode": "845438"}, {"city": "Bhabua", "pincode": 0}, {"city": "Bhagalpur", "pincode": "812001"}, {"city": "Buxar", "pincode": "802101"}, {"city": "Chhapra", "pincode": "841301"}, {"city": "Darbhanga", "pincode": "846004"}, {"city": "Dehri-on-Sone", "pincode": "821307"}, {"city": "Dumraon", "pincode": "800001"}, {"city": "Forbesganj", "pincode": "854318"}, {"city": "Gaya", "pincode": "110090"}, {"city": "Gopalganj", "pincode": "841428"}, {"city": "Hajipur", "pincode": "844101"}, {"city": "Jamalpur", "pincode": "380022"}, {"city": "Jamui", "pincode": "811307"}, {"city": "Jehanabad", "pincode": "804432"}, {"city": "Katihar", "pincode": "854105"}, {"city": "Kishanganj", "pincode": "110031"}, {"city": "Lakhisarai", "pincode": "811311"}, {"city": "Lalganj", "pincode": "226001"}, {"city": "Madhepura", "pincode": "852113"}, {"city": "Madhubani", "pincode": "847211"}, {"city": "Maharajganj", "pincode": "841238"}, {"city": "Mahnar Bazar", "pincode": 0}, {"city": "Makhdumpur", "pincode": "244251"}, {"city": "Maner", "pincode": 0}, {"city": "Manihari", "pincode": "821105"}, {"city": "Marhaura", "pincode": "841402"}, {"city": "Masaurhi", "pincode": "800001"}, {"city": "Mirganj", "pincode": "841438"}, {"city": "Mokameh", "pincode": "803302"}, {"city": "Motihari", "pincode": "845401"}, {"city": "Motipur", "pincode": "843111"}, {"city": "Munger", "pincode": "811201"}, {"city": "Murliganj", "pincode": 0}, {"city": "Muzaffarpur", "pincode": "843109"}, {"city": "Narkatiaganj", "pincode": 0}, {"city": "Naugachhia", "pincode": "853204"}, {"city": "Nawada", "pincode": "805124"}, {"city": "Nokha", "pincode": "334803"}, {"city": "Patna*", "pincode": 0}, {"city": "Piro", "pincode": "813201"}, {"city": "Purnia", "pincode": "854301"}, {"city": "Rafiganj", "pincode": 0}, {"city": "Rajgir", "pincode": "803116"}, {"city": "Ramnagar", "pincode": "244715"}, {"city": "Raxaul Bazar", "pincode": 0}, {"city": "Revelganj", "pincode": "841315"}, {"city": "Rosera", "pincode": "848210"}, {"city": "Saharsa", "pincode": "852201"}, {"city": "Samastipur", "pincode": "848101"}, {"city": "Sasaram", "pincode": "821115"}, {"city": "Sheikhpura", "pincode": "800015"}, {"city": "Sheohar", "pincode": "843329"}, {"city": "Sherghati", "pincode": "824211"}, {"city": "Silao", "pincode": "803117"}, {"city": "Sitamarhi", "pincode": "843301"}, {"city": "Siwan", "pincode": "841233"}, {"city": "Sonepur", "pincode": "767017"}, {"city": "Sugauli", "pincode": "845456"}, {"city": "Sultanganj", "pincode": 0}, {"city": "Supaul", "pincode": "852030"}, {"city": "Warisaliganj", "pincode": "805130"}], "Tamil Nadu": [{"city": "Arakkonam", "pincode": "631001"}, {"city": "Aruppukkottai", "pincode": "626101"}, {"city": "Chennai*", "pincode": 0}, {"city": "Coimbatore", "pincode": "560057"}, {"city": "Erode", "pincode": "638001"}, {"city": "Gobichettipalayam", "pincode": "638453"}, {"city": "Kancheepuram", "pincode": "631501"}, {"city": "Karur", "pincode": "639004"}, {"city": "Lalgudi", "pincode": "621601"}, {"city": "Madurai", "pincode": "625001"}, {"city": "Manachanallur", "pincode": "621005"}, {"city": "Nagapattinam", "pincode": "611001"}, {"city": "Nagercoil", "pincode": "629001"}, {"city": "Namagiripettai", "pincode": "637406"}, {"city": "Namakkal", "pincode": "637001"}, {"city": "Nandivaram-Guduvancheri", "pincode": "603202"}, {"city": "Nanjikottai", "pincode": "613006"}, {"city": "Natham", "pincode": "624401"}, {"city": "Nellikuppam", "pincode": "607105"}, {"city": "Neyveli (TS)", "pincode": 0}, {"city": "O' Valley", "pincode": 0}, {"city": "Oddanchatram", "pincode": "624619"}, {"city": "P.N.Patti", "pincode": 0}, {"city": "Pacode", "pincode": 0}, {"city": "Padmanabhapuram", "pincode": "629175"}, {"city": "Palani", "pincode": "624601"}, {"city": "Palladam", "pincode": "641669"}, {"city": "Pallapatti", "pincode": "639205"}, {"city": "Pallikonda", "pincode": "635809"}, {"city": "Panagudi", "pincode": "627109"}, {"city": "Panruti", "pincode": "607106"}, {"city": "Paramakudi", "pincode": "623707"}, {"city": "Parangipettai", "pincode": "608502"}, {"city": "Pattukkottai", "pincode": "611001"}, {"city": "Perambalur", "pincode": "621212"}, {"city": "Peravurani", "pincode": "614804"}, {"city": "Periyakulam", "pincode": "625601"}, {"city": "Periyasemur", "pincode": "638003"}, {"city": "Pernampattu", "pincode": 0}, {"city": "Pollachi", "pincode": "642002"}, {"city": "Polur", "pincode": "606803"}, {"city": "Ponneri", "pincode": "601204"}, {"city": "Pudukkottai", "pincode": "622001"}, {"city": "Pudupattinam", "pincode": "603102"}, {"city": "Puliyankudi", "pincode": 0}, {"city": "Punjaipugalur", "pincode": "639113"}, {"city": "Ranipet", "pincode": "632403"}, {"city": "Rajapalayam", "pincode": "626117"}, {"city": "Ramanathapuram", "pincode": "641045"}, {"city": "Rameshwaram", "pincode": "600017"}, {"city": "Rasipuram", "pincode": "637408"}, {"city": "Salem", "pincode": "636004"}, {"city": "Sankarankoil", "pincode": 0}, {"city": "Sankari", "pincode": "636308"}, {"city": "Sathyamangalam", "pincode": "638401"}, {"city": "Sattur", "pincode": "580009"}, {"city": "Shenkottai", "pincode": "627809"}, {"city": "Sholavandan", "pincode": "625214"}, {"city": "Sholingur", "pincode": "631001"}, {"city": "Sirkali", "pincode": "609110"}, {"city": "Sivaganga", "pincode": "630201"}, {"city": "Sivagiri", "pincode": "641044"}, {"city": "Sivakasi", "pincode": "626123"}, {"city": "Srivilliputhur", "pincode": "626135"}, {"city": "Surandai", "pincode": "627859"}, {"city": "Suriyampalayam", "pincode": "637209"}, {"city": "Tenkasi", "pincode": "627811"}, {"city": "Thammampatti", "pincode": "636113"}, {"city": "Thanjavur", "pincode": "613007"}, {"city": "Tharamangalam", "pincode": "636502"}, {"city": "Tharangambadi", "pincode": 0}, {"city": "Theni Allinagaram", "pincode": 0}, {"city": "Thirumangalam", "pincode": "600040"}, {"city": "Thirupuvanam", "pincode": "630611"}, {"city": "Thiruthuraipoondi", "pincode": 0}, {"city": "Thiruvallur", "pincode": "602001"}, {"city": "Thiruvarur", "pincode": "610104"}, {"city": "Thuraiyur", "pincode": "621010"}, {"city": "Tindivanam", "pincode": "604001"}, {"city": "Tiruchendur", "pincode": "628215"}, {"city": "Tiruchengode", "pincode": "637211"}, {"city": "Tiruchirappalli", "pincode": "620024"}, {"city": "Tirukalukundram", "pincode": "603104"}, {"city": "Tirukkoyilur", "pincode": "605757"}, {"city": "Tirunelveli", "pincode": "627001"}, {"city": "Tirupathur", "pincode": "635601"}, {"city": "Tirupathur", "pincode": "635601"}, {"city": "Tiruppur", "pincode": "641602"}, {"city": "Tiruttani", "pincode": "631209"}, {"city": "Tiruvannamalai", "pincode": "606601"}, {"city": "Tiruvethipuram", "pincode": "604407"}, {"city": "Tittakudi", "pincode": "606105"}, {"city": "Udhagamandalam", "pincode": "643001"}, {"city": "Udumalaipettai", "pincode": "642154"}, {"city": "Unnamalaikadai", "pincode": "629179"}, {"city": "Usilampatti", "pincode": "625532"}, {"city": "Uthamapalayam", "pincode": "625533"}, {"city": "Uthiramerur", "pincode": "603406"}, {"city": "Vadakkuvalliyur", "pincode": 0}, {"city": "Vadalur", "pincode": "607303"}, {"city": "Vadipatti", "pincode": "625218"}, {"city": "Valparai", "pincode": "642127"}, {"city": "Vandavasi", "pincode": "604408"}, {"city": "Vaniyambadi", "pincode": "635751"}, {"city": "Vedaranyam", "pincode": "614806"}, {"city": "Vellakoil", "pincode": 0}, {"city": "Vellore", "pincode": "632001"}, {"city": "Vikramasingapuram", "pincode": "627425"}, {"city": "Viluppuram", "pincode": "605602"}, {"city": "Virudhachalam", "pincode": "606025"}, {"city": "Virudhunagar", "pincode": "626001"}, {"city": "Viswanatham", "pincode": "626189"}], "Chandigarh": [{"city": "Chandigarh*", "pincode": 0}], "Jammu and Kashmir": [{"city": "Anantnag", "pincode": "192101"}, {"city": "Baramula", "pincode": "193101"}, {"city": "Jammu", "pincode": "180001"}, {"city": "Kathua", "pincode": 0}, {"city": "Punch", "pincode": 0}, {"city": "Rajauri", "pincode": "110027"}, {"city": "Sopore", "pincode": "193201"}, {"city": "Srinagar*", "pincode": 0}, {"city": "Udhampur", "pincode": "152004"}], "Dadra and Nagar Haveli": [{"city": "Silvassa*", "pincode": 0}], "Jharkhand": [{"city": "Adityapur", "pincode": "832109"}, {"city": "Bokaro Steel City", "pincode": 0}, {"city": "Chaibasa", "pincode": "833201"}, {"city": "Chatra", "pincode": "825401"}, {"city": "Chirkunda", "pincode": "828202"}, {"city": "Medininagar (Daltonganj)", "pincode": 0}, {"city": "Deoghar", "pincode": "814112"}, {"city": "Dhanbad", "pincode": "826001"}, {"city": "Dumka", "pincode": "814101"}, {"city": "Giridih", "pincode": "815301"}, {"city": "Gumia", "pincode": "829112"}, {"city": "Hazaribag", "pincode": "825301"}, {"city": "Jamshedpur", "pincode": "831302"}, {"city": "Jhumri Tilaiya", "pincode": 0}, {"city": "Lohardaga", "pincode": "835302"}, {"city": "Madhupur", "pincode": "500081"}, {"city": "Mihijam", "pincode": 0}, {"city": "Musabani", "pincode": "832104"}, {"city": "Pakaur", "pincode": "816107"}, {"city": "Patratu", "pincode": "829118"}, {"city": "Phusro", "pincode": "829144"}, {"city": "Ramgarh", "pincode": "829122"}, {"city": "Ranchi*", "pincode": 0}, {"city": "Sahibganj", "pincode": "816109"}, {"city": "Saunda", "pincode": "201204"}, {"city": "Simdega", "pincode": "835223"}, {"city": "Tenu dam-cum-Kathhara", "pincode": 0}], "Meghalaya": [{"city": "Nongstoin", "pincode": "793119"}, {"city": "Shillong*", "pincode": 0}, {"city": "Tura", "pincode": "794001"}], "Delhi": [{"city": "Delhi", "pincode": "110001"}, {"city": "New Delhi*", "pincode": 0}], "Assam": [{"city": "Barpeta", "pincode": "781328"}, {"city": "Bongaigaon City", "pincode": 0}, {"city": "Dhubri", "pincode": "783301"}, {"city": "Dibrugarh", "pincode": "786004"}, {"city": "Diphu", "pincode": "782460"}, {"city": "Goalpara", "pincode": "783380"}, {"city": "Guwahati", "pincode": "781001"}, {"city": "Jorhat", "pincode": "785001"}, {"city": "Karimganj", "pincode": "788710"}, {"city": "Lanka", "pincode": "221005"}, {"city": "Lumding", "pincode": "782447"}, {"city": "Mangaldoi", "pincode": "784125"}, {"city": "Mankachar", "pincode": "783131"}, {"city": "Margherita", "pincode": "786181"}, {"city": "Mariani", "pincode": "785634"}, {"city": "Marigaon", "pincode": "782105"}, {"city": "Nagaon", "pincode": "782001"}, {"city": "Nalbari", "pincode": "781335"}, {"city": "North Lakhimpur", "pincode": 0}, {"city": "Rangia", "pincode": "781354"}, {"city": "Sibsagar", "pincode": "785640"}, {"city": "Silapathar", "pincode": "787059"}, {"city": "Silchar", "pincode": "500013"}, {"city": "Tezpur", "pincode": "784001"}, {"city": "Tinsukia", "pincode": "784153"}], "Madhya Pradesh": [{"city": "Alirajpur", "pincode": "457887"}, {"city": "Ashok Nagar", "pincode": 0}, {"city": "Balaghat", "pincode": "481001"}, {"city": "Bhopal", "pincode": "462016"}, {"city": "Ganjbasoda", "pincode": 0}, {"city": "Gwalior", "pincode": "474001"}, {"city": "Indore", "pincode": "452001"}, {"city": "Itarsi", "pincode": "461111"}, {"city": "Jabalpur", "pincode": "482002"}, {"city": "Lahar", "pincode": "477445"}, {"city": "Maharajpur", "pincode": "247671"}, {"city": "Mahidpur", "pincode": "500010"}, {"city": "Maihar", "pincode": "485771"}, {"city": "Malaj Khand", "pincode": 0}, {"city": "Manasa", "pincode": "458110"}, {"city": "Manawar", "pincode": "454446"}, {"city": "Mandideep", "pincode": "462046"}, {"city": "Mandla", "pincode": "482002"}, {"city": "Mandsaur", "pincode": "457550"}, {"city": "Mauganj", "pincode": 0}, {"city": "Mhow Cantonment", "pincode": 0}, {"city": "Mhowgaon", "pincode": 0}, {"city": "Morena", "pincode": "476001"}, {"city": "Multai", "pincode": "460661"}, {"city": "Mundi", "pincode": "123411"}, {"city": "Murwara (Katni)", "pincode": 0}, {"city": "Nagda", "pincode": "456331"}, {"city": "Nainpur", "pincode": "481776"}, {"city": "Narsinghgarh", "pincode": "465669"}, {"city": "Narsinghgarh", "pincode": "465669"}, {"city": "Neemuch", "pincode": "458441"}, {"city": "Nepanagar", "pincode": "450221"}, {"city": "Niwari", "pincode": "201204"}, {"city": "Nowgong", "pincode": "471201"}, {"city": "Nowrozabad (Khodargama)", "pincode": 0}, {"city": "Pachore", "pincode": "465683"}, {"city": "Pali", "pincode": "306401"}, {"city": "Panagar", "pincode": "483220"}, {"city": "Pandhurna", "pincode": "480001"}, {"city": "Panna", "pincode": "488001"}, {"city": "Pasan", "pincode": 0}, {"city": "Pipariya", "pincode": "391760"}, {"city": "Pithampur", "pincode": "453331"}, {"city": "Porsa", "pincode": "476115"}, {"city": "Prithvipur", "pincode": 0}, {"city": "Raghogarh-Vijaypur", "pincode": "473226"}, {"city": "Rahatgarh", "pincode": "470119"}, {"city": "Raisen", "pincode": "462038"}, {"city": "Rajgarh", "pincode": "301408"}, {"city": "Ratlam", "pincode": "457001"}, {"city": "Rau", "pincode": "453331"}, {"city": "Rehli", "pincode": "470227"}, {"city": "Rewa", "pincode": "486001"}, {"city": "Sabalgarh", "pincode": 0}, {"city": "Sagar", "pincode": "577401"}, {"city": "Sanawad", "pincode": "451111"}, {"city": "Sarangpur", "pincode": "380002"}, {"city": "Sarni", "pincode": "460447"}, {"city": "Satna", "pincode": "485001"}, {"city": "Sausar", "pincode": "480106"}, {"city": "Sehore", "pincode": "466001"}, {"city": "Sendhwa", "pincode": "451666"}, {"city": "Seoni", "pincode": "480661"}, {"city": "Seoni-Malwa", "pincode": "461223"}, {"city": "Shahdol", "pincode": "484001"}, {"city": "Shajapur", "pincode": "465001"}, {"city": "Shamgarh", "pincode": "458883"}, {"city": "Sheopur", "pincode": 0}, {"city": "Shivpuri", "pincode": "473551"}, {"city": "Shujalpur", "pincode": "465333"}, {"city": "Sidhi", "pincode": "261303"}, {"city": "Sihora", "pincode": "483225"}, {"city": "Singrauli", "pincode": "486889"}, {"city": "Sironj", "pincode": "464228"}, {"city": "Sohagpur", "pincode": "461771"}, {"city": "Tarana", "pincode": "422006"}, {"city": "Tikamgarh", "pincode": "472001"}, {"city": "Ujjain", "pincode": "456001"}, {"city": "Umaria", "pincode": "484661"}, {"city": "Vidisha", "pincode": "464001"}, {"city": "Vijaypur", "pincode": "473111"}, {"city": "Wara Seoni", "pincode": 0}], "West Bengal": [{"city": "Adra", "pincode": "723121"}, {"city": "Alipurduar", "pincode": "736121"}, {"city": "Arambagh", "pincode": "712601"}, {"city": "Asansol", "pincode": "713301"}, {"city": "Baharampur", "pincode": "742101"}, {"city": "Balurghat", "pincode": "733101"}, {"city": "Bankura", "pincode": "722101"}, {"city": "Darjiling", "pincode": "734101"}, {"city": "English Bazar", "pincode": 0}, {"city": "Gangarampur", "pincode": "733124"}, {"city": "Habra", "pincode": "743271"}, {"city": "Hugli-Chinsurah", "pincode": "712101"}, {"city": "Jalpaiguri", "pincode": "735101"}, {"city": "Jhargram", "pincode": "721507"}, {"city": "Kalimpong", "pincode": "734301"}, {"city": "Kharagpur", "pincode": "721301"}, {"city": "Kolkata", "pincode": "700001"}, {"city": "Mainaguri", "pincode": "735224"}, {"city": "Malda", "pincode": "732101"}, {"city": "Mathabhanga", "pincode": "736101"}, {"city": "Medinipur", "pincode": "721636"}, {"city": "Memari", "pincode": "713146"}, {"city": "Monoharpur", "pincode": 0}, {"city": "Murshidabad", "pincode": "742212"}, {"city": "Nabadwip", "pincode": "741302"}, {"city": "Naihati", "pincode": "743165"}, {"city": "Panchla", "pincode": 0}, {"city": "Pandua", "pincode": 0}, {"city": "Paschim Punropara", "pincode": 0}, {"city": "Purulia", "pincode": "723101"}, {"city": "Raghunathpur", "pincode": "700059"}, {"city": "Raghunathganj", "pincode": "742225"}, {"city": "Raiganj", "pincode": "733129"}, {"city": "Rampurhat", "pincode": "731224"}, {"city": "Ranaghat", "pincode": "741201"}, {"city": "Sainthia", "pincode": "731234"}, {"city": "Santipur", "pincode": "741404"}, {"city": "Siliguri", "pincode": "734001"}, {"city": "Sonamukhi", "pincode": "722207"}, {"city": "Srirampore", "pincode": "712201"}, {"city": "Suri", "pincode": "731101"}, {"city": "Taki", "pincode": "700019"}, {"city": "Tamluk", "pincode": "721636"}, {"city": "Tarakeswar", "pincode": "712410"}], "Rajasthan": [{"city": "Ajmer", "pincode": "305001"}, {"city": "Alwar", "pincode": "301001"}, {"city": "Bikaner", "pincode": "334001"}, {"city": "Bharatpur", "pincode": "900309"}, {"city": "Bhilwara", "pincode": "311001"}, {"city": "Jaipur*", "pincode": 0}, {"city": "Jodhpur", "pincode": "342001"}, {"city": "Lachhmangarh", "pincode": "332311"}, {"city": "Ladnu", "pincode": "341306"}, {"city": "Lakheri", "pincode": "323603"}, {"city": "Lalsot", "pincode": "303510"}, {"city": "Losal", "pincode": "332025"}, {"city": "Makrana", "pincode": "341505"}, {"city": "Malpura", "pincode": "304502"}, {"city": "Mandalgarh", "pincode": "311604"}, {"city": "Mandawa", "pincode": "333704"}, {"city": "Mangrol", "pincode": "362225"}, {"city": "Merta City", "pincode": 0}, {"city": "Mount Abu", "pincode": 0}, {"city": "Nadbai", "pincode": "321602"}, {"city": "Nagar", "pincode": 0}, {"city": "Nagaur", "pincode": "341306"}, {"city": "Nasirabad", "pincode": "202001"}, {"city": "Nathdwara", "pincode": "313301"}, {"city": "Neem-Ka-Thana", "pincode": "332713"}, {"city": "Nimbahera", "pincode": "312601"}, {"city": "Nohar", "pincode": "335523"}, {"city": "Nokha", "pincode": "334803"}, {"city": "Pali", "pincode": "306401"}, {"city": "Phalodi", "pincode": "302016"}, {"city": "Phulera", "pincode": "303338"}, {"city": "Pilani", "pincode": "333031"}, {"city": "Pilibanga", "pincode": "335803"}, {"city": "Pindwara", "pincode": "307022"}, {"city": "Pipar City", "pincode": 0}, {"city": "Prantij", "pincode": "383205"}, {"city": "Pratapgarh", "pincode": "230138"}, {"city": "Raisinghnagar", "pincode": "335051"}, {"city": "Rajakhera", "pincode": "328025"}, {"city": "Rajaldesar", "pincode": "331802"}, {"city": "Rajgarh (Alwar)", "pincode": 0}, {"city": "Rajgarh (Churu)", "pincode": 0}, {"city": "Rajsamand", "pincode": "313301"}, {"city": "Ramganj Mandi", "pincode": 0}, {"city": "Ramngarh", "pincode": "829122"}, {"city": "Ratangarh", "pincode": "331022"}, {"city": "Rawatbhata", "pincode": "323307"}, {"city": "Rawatsar", "pincode": 0}, {"city": "Reengus", "pincode": "332404"}, {"city": "Sadri", "pincode": "306702"}, {"city": "Sadulshahar", "pincode": "335062"}, {"city": "Sadulpur", "pincode": "331023"}, {"city": "Sagwara", "pincode": "314025"}, {"city": "Sambhar", "pincode": "303604"}, {"city": "Sanchore", "pincode": "343041"}, {"city": "Sangaria", "pincode": "342001"}, {"city": "Sardarshahar", "pincode": "331403"}, {"city": "Sawai Madhopur", "pincode": 0}, {"city": "Shahpura", "pincode": "462016"}, {"city": "Shahpura", "pincode": "462016"}, {"city": "Sheoganj", "pincode": "802301"}, {"city": "Sikar", "pincode": "332001"}, {"city": "Sirohi", "pincode": "307001"}, {"city": "Sojat", "pincode": "306103"}, {"city": "Sri Madhopur", "pincode": 0}, {"city": "Sujangarh", "pincode": "331507"}, {"city": "Sumerpur", "pincode": "306902"}, {"city": "Suratgarh", "pincode": "335804"}, {"city": "Taranagar", "pincode": "500019"}, {"city": "Todabhim", "pincode": "321611"}, {"city": "Todaraisingh", "pincode": "304505"}, {"city": "Tonk", "pincode": "304001"}, {"city": "Udaipur", "pincode": "313001"}, {"city": "Udaipurwati", "pincode": "333307"}, {"city": "Vijainagar, Ajmer", "pincode": 0}], "Uttar Pradesh": [{"city": "Achhnera", "pincode": "283101"}, {"city": "Agra", "pincode": "282001"}, {"city": "Aligarh", "pincode": "202001"}, {"city": "Allahabad", "pincode": "211001"}, {"city": "Amroha", "pincode": "244221"}, {"city": "Azamgarh", "pincode": "276001"}, {"city": "Bahraich", "pincode": "271801"}, {"city": "Chandausi", "pincode": "202412"}, {"city": "Etawah", "pincode": "206001"}, {"city": "Firozabad", "pincode": "283203"}, {"city": "Fatehpur Sikri", "pincode": 0}, {"city": "Hapur", "pincode": "245101"}, {"city": "Hardoi *", "pincode": 0}, {"city": "Jhansi", "pincode": "284128"}, {"city": "Kalpi", "pincode": "208012"}, {"city": "Kanpur", "pincode": "208001"}, {"city": "Khair", "pincode": "202138"}, {"city": "Laharpur", "pincode": "261135"}, {"city": "Lakhimpur", "pincode": "262701"}, {"city": "Lal Gopalganj Nindaura", "pincode": 0}, {"city": "Lalitpur", "pincode": "284403"}, {"city": "Lalganj", "pincode": "226001"}, {"city": "Lar", "pincode": "274508"}, {"city": "Loni", "pincode": "201102"}, {"city": "Lucknow*", "pincode": 0}, {"city": "Mathura", "pincode": "280001"}, {"city": "Meerut", "pincode": "250001"}, {"city": "Modinagar", "pincode": "201204"}, {"city": "Moradabad", "pincode": "244001"}, {"city": "Nagina", "pincode": "246762"}, {"city": "Najibabad", "pincode": "246763"}, {"city": "Nakur", "pincode": "247342"}, {"city": "Nanpara", "pincode": "271865"}, {"city": "Naraura", "pincode": "202389"}, {"city": "Naugawan Sadat", "pincode": 0}, {"city": "Nautanwa", "pincode": "273164"}, {"city": "Nawabganj", "pincode": "208002"}, {"city": "Nehtaur", "pincode": "246733"}, {"city": "Niwai", "pincode": "333305"}, {"city": "Noida", "pincode": "201301"}, {"city": "Noorpur", "pincode": "246734"}, {"city": "Obra", "pincode": "231219"}, {"city": "Orai", "pincode": "285001"}, {"city": "Padrauna", "pincode": "274304"}, {"city": "Palia Kalan", "pincode": 0}, {"city": "Parasi", "pincode": "495118"}, {"city": "Phulpur", "pincode": "276304"}, {"city": "Pihani", "pincode": "241406"}, {"city": "Pilibhit", "pincode": "262001"}, {"city": "Pilkhuwa", "pincode": "245304"}, {"city": "Powayan", "pincode": "242401"}, {"city": "Pukhrayan", "pincode": "202001"}, {"city": "Puranpur", "pincode": "262122"}, {"city": "Purquazi", "pincode": 0}, {"city": "Purwa", "pincode": 0}, {"city": "Rae Bareli", "pincode": 0}, {"city": "Rampur", "pincode": "244901"}, {"city": "Rampur Maniharan", "pincode": 0}, {"city": "Rampur Maniharan", "pincode": 0}, {"city": "Rasra", "pincode": 0}, {"city": "Rath", "pincode": "210431"}, {"city": "Renukoot", "pincode": "231217"}, {"city": "Reoti", "pincode": "277209"}, {"city": "Robertsganj", "pincode": "231216"}, {"city": "Rudauli", "pincode": "225411"}, {"city": "Rudrapur", "pincode": "263153"}, {"city": "Sadabad", "pincode": "281301"}, {"city": "Safipur", "pincode": "241504"}, {"city": "Saharanpur", "pincode": "247001"}, {"city": "Sahaspur", "pincode": "248197"}, {"city": "Sahaswan", "pincode": "243638"}, {"city": "Sahawar", "pincode": "173202"}, {"city": "Sahjanwa", "pincode": "272209"}, {"city": "Saidpur", "pincode": "275202"}, {"city": "Sambhal", "pincode": "244403"}, {"city": "Samdhan", "pincode": "209601"}, {"city": "Samthar", "pincode": "284001"}, {"city": "Sandi", "pincode": "229001"}, {"city": "Sandila", "pincode": "241204"}, {"city": "Sardhana", "pincode": "250001"}, {"city": "Seohara", "pincode": "246746"}, {"city": "Shahabad, Hardoi", "pincode": 0}, {"city": "Shahabad, Rampur", "pincode": 0}, {"city": "Shahganj", "pincode": "282010"}, {"city": "Shahjahanpur", "pincode": "242001"}, {"city": "Shamli", "pincode": "247776"}, {"city": "Shamsabad, Agra", "pincode": 0}, {"city": "Shamsabad, Farrukhabad", "pincode": 0}, {"city": "Sherkot", "pincode": "246747"}, {"city": "Shikarpur, Bulandshahr", "pincode": 0}, {"city": "Shikohabad", "pincode": "205135"}, {"city": "Shishgarh", "pincode": "243001"}, {"city": "Siana", "pincode": 0}, {"city": "Sikanderpur", "pincode": "122001"}, {"city": "Sikandra Rao", "pincode": 0}, {"city": "Sikandrabad", "pincode": "203205"}, {"city": "Sirsaganj", "pincode": 0}, {"city": "Sirsi", "pincode": "581401"}, {"city": "Sitapur", "pincode": "261136"}, {"city": "Soron", "pincode": "212405"}, {"city": "Suar", "pincode": 0}, {"city": "Sultanpur", "pincode": "228001"}, {"city": "Sumerpur", "pincode": "306902"}, {"city": "Tanda", "pincode": "144004"}, {"city": "Thakurdwara", "pincode": 0}, {"city": "Thana Bhawan", "pincode": 0}, {"city": "Tilhar", "pincode": "242307"}, {"city": "Tirwaganj", "pincode": "209732"}, {"city": "Tulsipur", "pincode": "212217"}, {"city": "Tundla", "pincode": "283204"}, {"city": "Ujhani", "pincode": 0}, {"city": "Unnao", "pincode": "209861"}, {"city": "Utraula", "pincode": "271604"}, {"city": "Varanasi", "pincode": "221001"}, {"city": "Vrindavan", "pincode": "281121"}, {"city": "Warhapur", "pincode": 0}, {"city": "Zaidpur", "pincode": "225414"}, {"city": "Zamania", "pincode": "232329"}], "Manipur": [{"city": "Imphal*", "pincode": 0}, {"city": "Lilong", "pincode": "795130"}, {"city": "Mayang Imphal", "pincode": 0}, {"city": "Thoubal", "pincode": "795138"}], "Telangana": [{"city": "Adilabad", "pincode": "504001"}, {"city": "Bellampalle", "pincode": "504251"}, {"city": "Bhadrachalam", "pincode": "507111"}, {"city": "Bhainsa", "pincode": "504103"}, {"city": "Bhongir", "pincode": "508116"}, {"city": "Bodhan", "pincode": "503185"}, {"city": "Farooqnagar", "pincode": "509216"}, {"city": "Gadwal", "pincode": "509125"}, {"city": "Hyderabad*", "pincode": 0}, {"city": "Jagtial", "pincode": "505327"}, {"city": "Jangaon", "pincode": "506167"}, {"city": "Kagaznagar", "pincode": "504296"}, {"city": "Kamareddy", "pincode": "140604"}, {"city": "Karimnagar", "pincode": "500013"}, {"city": "Khammam", "pincode": "507001"}, {"city": "Koratla", "pincode": "505326"}, {"city": "Kothagudem", "pincode": "507101"}, {"city": "Kyathampalle", "pincode": 0}, {"city": "Mahbubnagar", "pincode": 0}, {"city": "Mancherial", "pincode": "504208"}, {"city": "Mandamarri", "pincode": "504231"}, {"city": "Manuguru", "pincode": "507117"}, {"city": "Medak", "pincode": "502110"}, {"city": "Miryalaguda", "pincode": "508207"}, {"city": "Nagarkurnool", "pincode": "509209"}, {"city": "Narayanpet", "pincode": "509210"}, {"city": "Nirmal", "pincode": "401304"}, {"city": "Nizamabad", "pincode": "503001"}, {"city": "Palwancha", "pincode": "503111"}, {"city": "Ramagundam", "pincode": "505209"}, {"city": "Sadasivpet", "pincode": "502291"}, {"city": "Sangareddy", "pincode": "502001"}, {"city": "Siddipet", "pincode": "502103"}, {"city": "Sircilla", "pincode": "505301"}, {"city": "Suryapet", "pincode": "508213"}, {"city": "Tandur", "pincode": "501141"}, {"city": "Vikarabad", "pincode": "501101"}, {"city": "Wanaparthy", "pincode": "509103"}, {"city": "Warangal", "pincode": "506006"}, {"city": "Yellandu", "pincode": "507002"}], "Andhra Pradesh": [{"city": "Adoni", "pincode": "518301"}, {"city": "Amalapuram", "pincode": "533201"}, {"city": "Anakapalle", "pincode": "531001"}, {"city": "Anantapur", "pincode": "515001"}, {"city": "Bapatla", "pincode": "522101"}, {"city": "Bheemunipatnam", "pincode": "531162"}, {"city": "Bhimavaram", "pincode": "534202"}, {"city": "Bobbili", "pincode": "535558"}, {"city": "Chilakaluripet", "pincode": "522616"}, {"city": "Chirala", "pincode": "523155"}, {"city": "Chittoor", "pincode": "517001"}, {"city": "Dharmavaram", "pincode": "515671"}, {"city": "Eluru", "pincode": "434556"}, {"city": "Gooty", "pincode": "515405"}, {"city": "Gudivada", "pincode": "521301"}, {"city": "Gudur", "pincode": "524101"}, {"city": "Guntakal", "pincode": "515801"}, {"city": "Guntur", "pincode": "522201"}, {"city": "Hindupur", "pincode": "515201"}, {"city": "Jaggaiahpet", "pincode": "521175"}, {"city": "Jammalamadugu", "pincode": "516434"}, {"city": "Kadapa", "pincode": "516213"}, {"city": "Kadiri", "pincode": "515591"}, {"city": "Kakinada", "pincode": "533003"}, {"city": "Kandukur", "pincode": "523105"}, {"city": "Kavali", "pincode": "524201"}, {"city": "Kovvur", "pincode": "534350"}, {"city": "Kurnool", "pincode": "518001"}, {"city": "Macherla", "pincode": "522426"}, {"city": "Machilipatnam", "pincode": "521001"}, {"city": "Madanapalle", "pincode": "517325"}, {"city": "Mandapeta", "pincode": "533308"}, {"city": "Markapur", "pincode": "523316"}, {"city": "Nagari", "pincode": "517590"}, {"city": "Naidupet", "pincode": "524126"}, {"city": "Nandyal", "pincode": "518501"}, {"city": "Narasapuram", "pincode": "534275"}, {"city": "Narasaraopet", "pincode": "522601"}, {"city": "Narsipatnam", "pincode": "531116"}, {"city": "Nellore", "pincode": "524001"}, {"city": "Nidadavole", "pincode": "534301"}, {"city": "Nuzvid", "pincode": "521201"}, {"city": "Ongole", "pincode": "523001"}, {"city": "Palacole", "pincode": "534260"}, {"city": "Palasa Kasibugga", "pincode": 0}, {"city": "Parvathipuram", "pincode": "629003"}, {"city": "Pedana", "pincode": "521366"}, {"city": "Peddapuram", "pincode": "533437"}, {"city": "Pithapuram", "pincode": "533450"}, {"city": "Ponnur", "pincode": "522124"}, {"city": "Proddatur", "pincode": "516368"}, {"city": "Punganur", "pincode": "517247"}, {"city": "Puttur", "pincode": "517583"}, {"city": "Rajahmundry", "pincode": "533101"}, {"city": "Rajam", "pincode": "532127"}, {"city": "Rajampet", "pincode": "516115"}, {"city": "Ramachandrapuram", "pincode": "502032"}, {"city": "Rayachoti", "pincode": "516269"}, {"city": "Rayadurg", "pincode": 0}, {"city": "Renigunta", "pincode": "517506"}, {"city": "Repalle", "pincode": "522265"}, {"city": "Salur", "pincode": "535591"}, {"city": "Samalkot", "pincode": "533440"}, {"city": "Sattenapalle", "pincode": "522410"}, {"city": "Srikakulam", "pincode": "532004"}, {"city": "Srikalahasti", "pincode": "517644"}, {"city": "Srisailam Project (Right Flank Colony) Township", "pincode": 0}, {"city": "Sullurpeta", "pincode": "524121"}, {"city": "Tadepalligudem", "pincode": "534101"}, {"city": "Tadpatri", "pincode": "515411"}, {"city": "Tanuku", "pincode": "534211"}, {"city": "Tenali", "pincode": "522201"}, {"city": "Tirupati", "pincode": "517760"}, {"city": "Tiruvuru", "pincode": "521235"}, {"city": "Tuni", "pincode": "533401"}, {"city": "Uravakonda", "pincode": "515812"}, {"city": "Venkatagiri", "pincode": "524132"}, {"city": "Vijayawada", "pincode": "520010"}, {"city": "Vinukonda", "pincode": "522647"}, {"city": "Visakhapatnam", "pincode": "530016"}, {"city": "Vizianagaram", "pincode": "535001"}, {"city": "Yemmiganur", "pincode": "518360"}, {"city": "Yerraguntla", "pincode": "516309"}], "Himachal Pradesh": [{"city": "Mandi", "pincode": "147301"}, {"city": "Nahan", "pincode": "173001"}, {"city": "Palampur", "pincode": "176061"}, {"city": "Shimla*", "pincode": 0}, {"city": "Solan", "pincode": "173212"}, {"city": "Sundarnagar", "pincode": "174402"}], "Nagaland": [{"city": "Dimapur", "pincode": "797112"}, {"city": "Kohima*", "pincode": 0}, {"city": "Mokokchung", "pincode": "798601"}, {"city": "Tuensang", "pincode": "798601"}, {"city": "Wokha", "pincode": "797111"}, {"city": "Zunheboto", "pincode": "798620"}], "Gujarat": [{"city": "Adalaj", "pincode": "382421"}, {"city": "Ahmedabad", "pincode": "380001"}, {"city": "Amreli", "pincode": "365601"}, {"city": "Anand", "pincode": "110005"}, {"city": "Anjar", "pincode": "370110"}, {"city": "Ankleshwar", "pincode": "393001"}, {"city": "Bharuch", "pincode": "392001"}, {"city": "Bhavnagar", "pincode": "364001"}, {"city": "Bhuj", "pincode": "370001"}, {"city": "Chhapra", "pincode": "841301"}, {"city": "Deesa", "pincode": "385535"}, {"city": "Dhoraji", "pincode": "360410"}, {"city": "Godhra", "pincode": "389001"}, {"city": "Jamnagar", "pincode": "361004"}, {"city": "Kadi", "pincode": "382715"}, {"city": "Kapadvanj", "pincode": "387001"}, {"city": "Keshod", "pincode": "362220"}, {"city": "Khambhat", "pincode": "413319"}, {"city": "Lathi", "pincode": "364430"}, {"city": "Limbdi", "pincode": "363421"}, {"city": "Lunawada", "pincode": 0}, {"city": "Mahesana", "pincode": "384001"}, {"city": "Mahuva", "pincode": "364290"}, {"city": "Manavadar", "pincode": "362630"}, {"city": "Mandvi", "pincode": "400003"}, {"city": "Mangrol", "pincode": "362225"}, {"city": "Mansa", "pincode": "151505"}, {"city": "Mahemdabad", "pincode": "387130"}, {"city": "Modasa", "pincode": "383315"}, {"city": "Morvi", "pincode": 0}, {"city": "Nadiad", "pincode": "387001"}, {"city": "Navsari", "pincode": "394002"}, {"city": "Padra", "pincode": "390020"}, {"city": "Palanpur", "pincode": "385545"}, {"city": "Palitana", "pincode": "364270"}, {"city": "Pardi", "pincode": "596191"}, {"city": "Patan", "pincode": "385340"}, {"city": "Petlad", "pincode": "388450"}, {"city": "Porbandar", "pincode": "360575"}, {"city": "Radhanpur", "pincode": "384002"}, {"city": "Rajkot", "pincode": "360004"}, {"city": "Rajpipla", "pincode": "393145"}, {"city": "Rajula", "pincode": "365560"}, {"city": "Ranavav", "pincode": "360560"}, {"city": "Rapar", "pincode": "370165"}, {"city": "Salaya", "pincode": "361310"}, {"city": "Sanand", "pincode": "382210"}, {"city": "Savarkundla", "pincode": "364515"}, {"city": "Sidhpur", "pincode": "384151"}, {"city": "Sihor", "pincode": 0}, {"city": "Songadh", "pincode": "394670"}, {"city": "Surat", "pincode": "395001"}, {"city": "Talaja", "pincode": "364140"}, {"city": "Thangadh", "pincode": "363530"}, {"city": "Tharad", "pincode": "385565"}, {"city": "Umbergaon", "pincode": "263001"}, {"city": "Umreth", "pincode": "388210"}, {"city": "Una", "pincode": "174303"}, {"city": "Unjha", "pincode": "384170"}, {"city": "Upleta", "pincode": "360490"}, {"city": "Vadnagar", "pincode": "244713"}, {"city": "Vadodara", "pincode": "390001"}, {"city": "Valsad", "pincode": "396001"}, {"city": "Vapi", "pincode": "396191"}, {"city": "Vapi", "pincode": "396191"}, {"city": "Veraval", "pincode": "362266"}, {"city": "Vijapur", "pincode": "382870"}, {"city": "Viramgam", "pincode": "382150"}, {"city": "Visnagar", "pincode": "384315"}, {"city": "Vyara", "pincode": "394650"}, {"city": "Wadhwan", "pincode": "363001"}, {"city": "Wankaner", "pincode": 0}], "Arunachal Pradesh": [{"city": "Naharlagun", "pincode": "791110"}, {"city": "Pasighat", "pincode": "791102"}], "Maharashtra": [{"city": "[[]]", "pincode": 0}, {"city": "Ahmednagar", "pincode": "414001"}, {"city": "Akola", "pincode": "131402"}, {"city": "Akot", "pincode": "444101"}, {"city": "Amalner", "pincode": "425401"}, {"city": "Ambejogai", "pincode": "431517"}, {"city": "Amravati", "pincode": "440008"}, {"city": "Anjangaon", "pincode": "444701"}, {"city": "Arvi", "pincode": "442001"}, {"city": "Aurangabad", "pincode": "431003"}, {"city": "Bhiwandi", "pincode": "421302"}, {"city": "Dhule", "pincode": "424001"}, {"city": "Kalyan-Dombivali", "pincode": "421201"}, {"city": "Ichalkaranji", "pincode": "416115"}, {"city": "Kalyan-Dombivali", "pincode": "421201"}, {"city": "Karjat", "pincode": "410201"}, {"city": "Latur", "pincode": "413512"}, {"city": "Loha", "pincode": "431708"}, {"city": "Lonar", "pincode": 0}, {"city": "Lonavla", "pincode": "410401"}, {"city": "Mahad", "pincode": "402301"}, {"city": "Malegaon", "pincode": "423105"}, {"city": "Malkapur", "pincode": "443101"}, {"city": "Mangalvedhe", "pincode": "575003"}, {"city": "Mangrulpir", "pincode": "444101"}, {"city": "Manjlegaon", "pincode": "423203"}, {"city": "Manmad", "pincode": "423104"}, {"city": "Manwath", "pincode": "431505"}, {"city": "Mehkar", "pincode": "443303"}, {"city": "Mhaswad", "pincode": "415509"}, {"city": "Mira-Bhayandar", "pincode": "401107"}, {"city": "Morshi", "pincode": "444601"}, {"city": "Mukhed", "pincode": "431715"}, {"city": "Mul", "pincode": 0}, {"city": "Greater Mumbai*", "pincode": 0}, {"city": "Murtijapur", "pincode": "444107"}, {"city": "Nagpur", "pincode": "813501"}, {"city": "Nanded-Waghala", "pincode": "431606"}, {"city": "Nandgaon", "pincode": "423106"}, {"city": "Nandura", "pincode": "443404"}, {"city": "Nandurbar", "pincode": "425412"}, {"city": "Narkhed", "pincode": "441304"}, {"city": "Nashik", "pincode": "422001"}, {"city": "Navi Mumbai", "pincode": 0}, {"city": "Nawapur", "pincode": 0}, {"city": "Nilanga", "pincode": "413521"}, {"city": "Osmanabad", "pincode": "413501"}, {"city": "Ozar", "pincode": 0}, {"city": "Pachora", "pincode": "424201"}, {"city": "Paithan", "pincode": "431001"}, {"city": "Palghar", "pincode": "401404"}, {"city": "Pandharkaoda", "pincode": "445001"}, {"city": "Pandharpur", "pincode": "413304"}, {"city": "Panvel", "pincode": "410206"}, {"city": "Parbhani", "pincode": "431401"}, {"city": "Parli", "pincode": "431515"}, {"city": "Partur", "pincode": "431501"}, {"city": "Pathardi", "pincode": "414102"}, {"city": "Pathri", "pincode": "431401"}, {"city": "Patur", "pincode": "444501"}, {"city": "Pauni", "pincode": "441910"}, {"city": "Pen", "pincode": "402107"}, {"city": "Phaltan", "pincode": "415523"}, {"city": "Pulgaon", "pincode": "442302"}, {"city": "Pune", "pincode": "411009"}, {"city": "Purna", "pincode": "444204"}, {"city": "Pusad", "pincode": "445204"}, {"city": "Rahuri", "pincode": "413705"}, {"city": "Rajura", "pincode": "442905"}, {"city": "Ramtek", "pincode": "441106"}, {"city": "Ratnagiri", "pincode": "415612"}, {"city": "Raver", "pincode": 0}, {"city": "Risod", "pincode": "444506"}, {"city": "Sailu", "pincode": "431503"}, {"city": "Sangamner", "pincode": "422605"}, {"city": "Sangli", "pincode": "416416"}, {"city": "Sangole", "pincode": "413001"}, {"city": "Sasvad", "pincode": "412301"}, {"city": "Satana", "pincode": "423301"}, {"city": "Satara", "pincode": "415001"}, {"city": "Savner", "pincode": 0}, {"city": "Sawantwadi", "pincode": "416510"}, {"city": "Shahade", "pincode": "425409"}, {"city": "Shegaon", "pincode": "444203"}, {"city": "Shendurjana", "pincode": 0}, {"city": "Shirdi", "pincode": "423109"}, {"city": "Shirpur-Warwade", "pincode": "425405"}, {"city": "Shirur", "pincode": "412208"}, {"city": "Shrigonda", "pincode": "413701"}, {"city": "Shrirampur", "pincode": "413709"}, {"city": "Sillod", "pincode": "431112"}, {"city": "Sinnar", "pincode": "422103"}, {"city": "Solapur", "pincode": "413003"}, {"city": "Soyagaon", "pincode": "423203"}, {"city": "Talegaon Dabhade", "pincode": 0}, {"city": "Talode", "pincode": "425413"}, {"city": "Tasgaon", "pincode": "416312"}, {"city": "Thane", "pincode": "400601"}, {"city": "Tirora", "pincode": "441911"}, {"city": "Tuljapur", "pincode": 0}, {"city": "Tumsar", "pincode": "441912"}, {"city": "Uchgaon", "pincode": 0}, {"city": "Udgir", "pincode": "413517"}, {"city": "Umarga", "pincode": "413606"}, {"city": "Umarkhed", "pincode": "445206"}, {"city": "Umred", "pincode": "441203"}, {"city": "Uran", "pincode": "400702"}, {"city": "Uran Islampur", "pincode": 0}, {"city": "Vadgaon Kasba", "pincode": 0}, {"city": "Vaijapur", "pincode": "423701"}, {"city": "Vasai-Virar", "pincode": "401208"}, {"city": "Vita", "pincode": 0}, {"city": "Wadgaon Road", "pincode": 0}, {"city": "Wai", "pincode": "412803"}, {"city": "Wani", "pincode": 0}, {"city": "Wardha", "pincode": "442001"}, {"city": "Warora", "pincode": "442907"}, {"city": "Warud", "pincode": 0}, {"city": "Washim", "pincode": "444505"}, {"city": "Yavatmal", "pincode": "229306"}, {"city": "Yawal", "pincode": "425301"}, {"city": "Yevla", "pincode": "422001"}], "Tripura": [{"city": "Agartala*", "pincode": 0}, {"city": "Belonia", "pincode": "799155"}, {"city": "Dharmanagar", "pincode": "799250"}, {"city": "Kailasahar", "pincode": "799277"}, {"city": "Khowai", "pincode": "799201"}, {"city": "Pratapgarh", "pincode": "230138"}, {"city": "Udaipur", "pincode": "313001"}], "Uttarakhand": [{"city": "Bageshwar", "pincode": "263642"}, {"city": "Dehradun", "pincode": "248001"}, {"city": "Haldwani-cum-Kathgodam", "pincode": "263139"}, {"city": "Hardwar", "pincode": 0}, {"city": "Kashipur", "pincode": "246277"}, {"city": "Manglaur", "pincode": "575003"}, {"city": "Mussoorie", "pincode": "248179"}, {"city": "Nagla", "pincode": "207001"}, {"city": "Nainital", "pincode": "263001"}, {"city": "Pauri", "pincode": "246174"}, {"city": "Pithoragarh", "pincode": "262576"}, {"city": "Ramnagar", "pincode": "244715"}, {"city": "Rishikesh", "pincode": "249201"}, {"city": "Roorkee", "pincode": "247667"}, {"city": "Rudrapur", "pincode": "263153"}, {"city": "Sitarganj", "pincode": "262001"}, {"city": "Srinagar", "pincode": "545878"}, {"city": "Tehri", "pincode": "249192"}], "Puducherry": [{"city": "Karaikal", "pincode": "609602"}, {"city": "Mahe", "pincode": 0}, {"city": "Pondicherry*", "pincode": 0}, {"city": "Yanam", "pincode": "533464"}], "Karnataka": [{"city": "Adyar", "pincode": "600020"}, {"city": "Afzalpur", "pincode": "560007"}, {"city": "Arsikere", "pincode": "573103"}, {"city": "Athni", "pincode": "591304"}, {"city": "Bengaluru", "pincode": "560001"}, {"city": "Belagavi", "pincode": "577450"}, {"city": "Ballari", "pincode": 0}, {"city": "Chikkamagaluru", "pincode": "577101"}, {"city": "Davanagere", "pincode": "577004"}, {"city": "Gokak", "pincode": "591307"}, {"city": "Hubli-Dharwad", "pincode": "580031"}, {"city": "Karwar", "pincode": "581301"}, {"city": "Kolar", "pincode": "563101"}, {"city": "Lakshmeshwar", "pincode": "582116"}, {"city": "Lingsugur", "pincode": 0}, {"city": "Maddur", "pincode": "571422"}, {"city": "Madhugiri", "pincode": "572132"}, {"city": "Madikeri", "pincode": "571201"}, {"city": "Magadi", "pincode": "560023"}, {"city": "Mahalingapura", "pincode": "587312"}, {"city": "Malavalli", "pincode": "571430"}, {"city": "Malur", "pincode": "563130"}, {"city": "Mandya", "pincode": "571401"}, {"city": "Mangaluru", "pincode": "575003"}, {"city": "Manvi", "pincode": "584123"}, {"city": "Mudalagi", "pincode": "591312"}, {"city": "Mudabidri", "pincode": "574227"}, {"city": "Muddebihal", "pincode": "586212"}, {"city": "Mudhol", "pincode": "585364"}, {"city": "Mulbagal", "pincode": "563131"}, {"city": "Mundargi", "pincode": "582118"}, {"city": "Nanjangud", "pincode": "571301"}, {"city": "Nargund", "pincode": "582207"}, {"city": "Navalgund", "pincode": 0}, {"city": "Nelamangala", "pincode": "562123"}, {"city": "Pavagada", "pincode": "561202"}, {"city": "Piriyapatna", "pincode": "571107"}, {"city": "Puttur", "pincode": "517583"}, {"city": "Rabkavi Banhatti", "pincode": 0}, {"city": "Raayachuru", "pincode": 0}, {"city": "Ranebennuru", "pincode": 0}, {"city": "Ramanagaram", "pincode": "562160"}, {"city": "Ramdurg", "pincode": "591123"}, {"city": "Ranibennur", "pincode": "581115"}, {"city": "Robertson Pet", "pincode": 0}, {"city": "Ron", "pincode": "582209"}, {"city": "Sadalagi", "pincode": 0}, {"city": "Sagara", "pincode": "577401"}, {"city": "Sakaleshapura", "pincode": "573134"}, {"city": "Sindagi", "pincode": "586128"}, {"city": "Sanduru", "pincode": 0}, {"city": "Sankeshwara", "pincode": "591313"}, {"city": "Saundatti-Yellamma", "pincode": "591126"}, {"city": "Savanur", "pincode": "581118"}, {"city": "Sedam", "pincode": "585222"}, {"city": "Shahabad", "pincode": "136135"}, {"city": "Shahpur", "pincode": "380001"}, {"city": "Shiggaon", "pincode": 0}, {"city": "Shikaripur", "pincode": "577427"}, {"city": "Shivamogga", "pincode": "577401"}, {"city": "Surapura", "pincode": 0}, {"city": "Shrirangapattana", "pincode": "571438"}, {"city": "Sidlaghatta", "pincode": "562105"}, {"city": "Sindhagi", "pincode": 0}, {"city": "Sindhnur", "pincode": "584128"}, {"city": "Sira", "pincode": "572106"}, {"city": "Sirsi", "pincode": "581401"}, {"city": "Siruguppa", "pincode": "583121"}, {"city": "Srinivaspur", "pincode": "563135"}, {"city": "Tarikere", "pincode": "577228"}, {"city": "Tekkalakote", "pincode": 0}, {"city": "Terdal", "pincode": "587315"}, {"city": "Talikota", "pincode": "586122"}, {"city": "Tiptur", "pincode": "572202"}, {"city": "Tumkur", "pincode": "572102"}, {"city": "Udupi", "pincode": "576101"}, {"city": "Vijayapura", "pincode": "562135"}, {"city": "Wadi", "pincode": "400601"}, {"city": "Yadgir", "pincode": "600006"}], "Mizoram": [{"city": "Aizawl", "pincode": "796001"}, {"city": "Lunglei", "pincode": "796701"}, {"city": "Saiha", "pincode": "796901"}], "Odisha": [{"city": "Balangir", "pincode": "767001"}, {"city": "Baleshwar Town", "pincode": 0}, {"city": "Barbil", "pincode": "758035"}, {"city": "Bargarh", "pincode": "768028"}, {"city": "Baripada Town", "pincode": 0}, {"city": "Bhadrak", "pincode": "756100"}, {"city": "Bhawanipatna", "pincode": "766001"}, {"city": "Bhubaneswar*", "pincode": 0}, {"city": "Brahmapur", "pincode": "760001"}, {"city": "Byasanagar", "pincode": 0}, {"city": "Cuttack", "pincode": "753001"}, {"city": "Dhenkanal", "pincode": "759001"}, {"city": "Jatani", "pincode": "752050"}, {"city": "Jharsuguda", "pincode": "768216"}, {"city": "Kendrapara", "pincode": "754240"}, {"city": "Kendujhar", "pincode": 0}, {"city": "Malkangiri", "pincode": "764044"}, {"city": "Nabarangapur", "pincode": "764059"}, {"city": "Paradip", "pincode": "754142"}, {"city": "Parlakhemundi", "pincode": "761200"}, {"city": "Pattamundai", "pincode": "754215"}, {"city": "Phulabani", "pincode": "762001"}, {"city": "Puri", "pincode": "752001"}, {"city": "Rairangpur", "pincode": "757043"}, {"city": "Rajagangapur", "pincode": "770017"}, {"city": "Raurkela", "pincode": "769001"}, {"city": "Rayagada", "pincode": "765001"}, {"city": "Sambalpur", "pincode": "768017"}, {"city": "Soro", "pincode": "756045"}, {"city": "Sunabeda", "pincode": "763002"}, {"city": "Sundargarh", "pincode": "770001"}, {"city": "Talcher", "pincode": "759100"}, {"city": "Tarbha", "pincode": "767016"}, {"city": "Titlagarh", "pincode": "767033"}], "Andaman and Nicobar Islands": [{"city": "Port Blair*", "pincode": 0}]}